GLOBALSTAR M035         
1 25851U 99037A   25062.35658556 -.00000060  00000+0  14666-3 0  9999
2 25851  51.9947 290.9831 0013784 166.2989   4.4386 11.04536594 84560
GLOBALSTAR M032         
1 25852U 99037B   25062.48364969  .00000035  00000+0  32684-2 0  9996
2 25852  51.9939 123.1842 0010891 350.5194   9.5399 11.19060852122954
GLOBALSTAR M051         
1 25853U 99037C   25062.07688632 -.00000040  00000+0  78614-3 0  9999
2 25853  51.9800 296.8755 0001539  47.9975 312.0966 11.42204151120268
GLOBALSTAR M030         
1 25854U 99037D   25062.51163709 -.00000101  00000+0 -55700-3 0  9992
2 25854  51.9865 108.6461 0003921 215.8214 144.2341 11.55099933137830
GLOBALSTAR M048         
1 25872U 99041A   25062.59577017 -.00000067  00000+0  91726-4 0  9995
2 25872  51.9340 226.5707 0013056   6.7633  70.3234 11.33855060113003
GLOBALSTAR M026         
1 25873U 99041B   25062.12927264 -.00000023  00000+0  15192-2 0  9991
2 25873  52.0019  50.5572 0001694  86.3863 354.2676 11.06828550136742
GLOBALSTAR M043         
1 25874U 99041C   25062.18142896 -.00000008  00000+0  17842-2 0  9995
2 25874  51.9436 330.9772 0013612 129.5649  40.3308 11.25690599110935
GLOBALSTAR M028         
1 25875U 99041D   25062.73283514 -.00000044  00000+0  36125-3 0  9996
2 25875  51.9618 147.5101 0063462 201.8963 157.9182 12.50578247177018
